     2.100          NAVIGATION                              RINEX VERSION / TYPE
fic2rin                                 04/26/2010 00:18:53 PGM / RUN BY / DATE
                                                            END OF HEADER
22 10  4 25 10  0  0.0  .173643697053D-03 -.682121026330D-12  .000000000000D+00
     .840000000000D+02  .263125000000D+02  .567059334583D-08 -.650133916801D-01
     .146217644215D-05  .519065279514D-02  .220537185669D-05  .515365154839D+04
     .360000000000D+05 -.577419996262D-07  .947024417608D+00  .391155481339D-07
     .935378834832D+00  .321875000000D+03 -.192853290695D+01 -.905573435054D-08
    -.560737642688D-10  .100000000000D+01  .158100000000D+04  .000000000000D+00
     .240000000000D+01  .000000000000D+00 -.176951289177D-07  .840000000000D+02
     .288060000000D+05  .400000000000D+01
24 10  4 25 10  0  0.0  .281974673271D-03  .318323145621D-11  .000000000000D+00
     .650000000000D+02  .912812500000D+02  .483162982820D-08 -.263408628895D+00
     .474788248539D-05  .571964739356D-02  .110566616058D-04  .515488710403D+04
     .360000000000D+05  .875443220139D-07 -.768565049705D-01 -.800937414169D-07
     .949778771972D+00  .163187500000D+03 -.476490368422D+00 -.827248743945D-08
     .334299639208D-09  .100000000000D+01  .158100000000D+04  .000000000000D+00
     .240000000000D+01  .000000000000D+00 -.139698386192D-08  .650000000000D+02
     .288060000000D+05  .400000000000D+01
26 10  4 25 10  0  0.0 -.436841510236D-04 -.477484718431D-11  .000000000000D+00
     .110000000000D+02 -.863750000000D+02  .356872008009D-08 -.305485164418D+01
    -.452063977718D-05  .194533983013D-01  .106152147055D-04  .515235844994D+04
     .360000000000D+05  .204890966415D-06  .203145437402D+01 -.191852450371D-06
     .990669705141D+00  .187406250000D+03  .108300588905D+01 -.745959643642D-08
    -.425732019162D-09  .100000000000D+01  .158100000000D+04  .000000000000D+00
     .240000000000D+01  .000000000000D+00 -.605359673500D-08  .110000000000D+02
     .288060000000D+05  .400000000000D+01
27 10  4 25 10  0  0.0  .146160367876D-03  .341060513165D-11  .000000000000D+00
     .900000000000D+02  .463125000000D+02  .388230457071D-08 -.993191759818D+00
     .252202153206D-05  .215487278765D-01  .123511999846D-04  .515364437294D+04
     .360000000000D+05 -.277534127235D-06  .296017258526D+01  .262632966042D-06
     .978387085909D+00  .161781250000D+03 -.143003353436D+01 -.808855120634D-08
     .608596779070D-09  .100000000000D+01  .158100000000D+04  .000000000000D+00
     .240000000000D+01  .000000000000D+00 -.419095158577D-08  .900000000000D+02
     .288060000000D+05  .400000000000D+01
28 10  4 25 10  0  0.0 -.177281908691D-04  .909494701773D-12  .000000000000D+00
     .610000000000D+02  .290625000000D+01  .486698844389D-08  .673615975609D-01
     .124797224998D-06  .159317817306D-01  .454299151897D-05  .515366260719D+04
     .360000000000D+05 -.165775418282D-06 -.218828289330D+01  .145286321640D-06
     .969686232878D+00  .299906250000D+03 -.195678787497D+01 -.864071706341D-08
     .162506769059D-09  .100000000000D+01  .158100000000D+04  .000000000000D+00
     .240000000000D+01  .000000000000D+00 -.107102096081D-07  .610000000000D+02
     .288060000000D+05  .400000000000D+01
29 10  4 25 10  0  0.0  .115227885544D-03  .284217094304D-11  .000000000000D+00
     .800000000000D+01 -.589062500000D+02  .464340770228D-08  .218693045480D+01
    -.313483178616D-05  .305450265296D-02  .108983367682D-04  .515375826073D+04
     .360000000000D+05  .838190317154D-07 -.114434792689D+01 -.372529029846D-07
     .960280007563D+00  .171000000000D+03 -.130127831940D+01 -.805140680198D-08
    -.514307137242D-09  .100000000000D+01  .158100000000D+04  .000000000000D+00
     .240000000000D+01  .000000000000D+00 -.884756445885D-08  .800000000000D+01
     .288060000000D+05  .400000000000D+01
30 10  4 25 10  0  0.0  .236810650676D-03  .341060513165D-11  .000000000000D+00
     .380000000000D+02  .129687500000D+02  .523843248745D-08  .528882734272D+00
     .530853867531D-06  .121068146545D-01  .435300171375D-05  .515373810959D+04
     .360000000000D+05 -.145286321640D-06 -.226651460856D+01 -.204890966415D-07
     .955533388452D+00  .292812500000D+03  .147663511893D+01 -.882393898105D-08
     .196793911542D-09  .100000000000D+01  .158100000000D+04  .000000000000D+00
     .240000000000D+01  .000000000000D+00 -.791624188423D-08  .380000000000D+02
     .288060000000D+05  .400000000000D+01
31 10  4 25 10  0  0.0 -.402485020459D-04  .216004991671D-11  .000000000000D+00
     .260000000000D+02  .319375000000D+02  .386123226439D-08  .288532141036D+01
     .178068876266D-05  .747326237615D-02  .121910125017D-04  .515367743683D+04
     .360000000000D+05  .117346644402D-06  .301593795890D+01  .465661287308D-07
     .976878722280D+00  .151125000000D+03 -.105994804576D+01 -.764424698500D-08
     .476805575152D-09  .100000000000D+01  .158100000000D+04  .000000000000D+00
     .240000000000D+01  .000000000000D+00 -.130385160446D-07  .260000000000D+02
     .288060000000D+05  .400000000000D+01
32 10  4 25 10  0  0.0  .437004491687D-04 -.852651282912D-11  .000000000000D+00
     .980000000000D+02  .220625000000D+02  .484984487265D-08 -.258232386879D+01
     .118650496006D-05  .126714499202D-01  .238232314587D-05  .515374926949D+04
     .360000000000D+05  .596046447754D-07  .100470366260D+01  .212341547012D-06
     .959458700483D+00  .330875000000D+03 -.991635593877D+00 -.832606109958D-08
    -.678599694973D-10  .100000000000D+01  .158100000000D+04  .000000000000D+00
     .240000000000D+01  .000000000000D+00 -.325962901115D-08  .980000000000D+02
     .288060000000D+05  .400000000000D+01
16 10  4 25  9 59 44.0 -.650649890304D-04 -.386535248253D-11  .000000000000D+00
     .000000000000D+00  .503125000000D+01  .479841415892D-08  .626636399338D+00
     .284984707832D-06  .590809248388D-02  .403821468353D-05  .515374222565D+04
     .359840000000D+05  .100582838058D-06 -.219604482064D+01 -.372529029846D-08
     .971456104818D+00  .305375000000D+03 -.242964246333D+00 -.840927885165D-08
     .189650756858D-09  .100000000000D+01  .158100000000D+04  .000000000000D+00
     .240000000000D+01  .000000000000D+00 -.977888703346D-08  .000000000000D+00
     .307260000000D+05  .400000000000D+01
16 10  4 25 11 59 44.0 -.650924630463D-04 -.386535248253D-11  .000000000000D+00
     .270000000000D+02  .921875000000D+01  .474876923387D-08  .167667869178D+01
     .527128577232D-06  .590832531452D-02  .413693487644D-05  .515374341393D+04
     .431840000000D+05  .149011611938D-07 -.219610465984D+01  .633299350739D-07
     .971457443388D+00  .303906250000D+03 -.242866299579D+00 -.833963309348D-08
     .126433837905D-09  .100000000000D+01  .158100000000D+04  .000000000000D+00
     .240000000000D+01  .000000000000D+00 -.977888703346D-08  .270000000000D+02
     .360060000000D+05  .400000000000D+01
 1 10  4 25 12  0  0.0 -.112612266093D-03 -.409272615798D-11  .000000000000D+00
     .660000000000D+02  .996875000000D+01  .621847331009D-08  .139385491049D+01
     .473111867905D-06  .458649650682D-02  .419653952122D-05  .515478699875D+04
     .432000000000D+05 -.875443220139D-07 -.222768703942D+01  .465661287308D-07
     .964158772466D+00  .298250000000D+03  .860956613842D+00 -.851999774925D-08
     .213223167315D-09  .100000000000D+01  .158100000000D+04  .000000000000D+00
     .240000000000D+01  .630000000000D+02 -.190921127796D-07  .660000000000D+02
     .360060000000D+05  .400000000000D+01
 2 10  4 25 12  0  0.0  .249780714512D-03  .352429196937D-11  .000000000000D+00
     .300000000000D+02  .722500000000D+02  .499270796633D-08 -.713009400001D+00
     .378116965294D-05  .950607459527D-02  .107903033495D-04  .515357730293D+04
     .432000000000D+05  .856816768646D-07 -.143663767761D+00 -.126659870148D-06
     .940463962945D+00  .162687500000D+03  .304105081149D+01 -.830106005819D-08
     .255367779950D-09  .100000000000D+01  .158100000000D+04  .000000000000D+00
     .240000000000D+01  .000000000000D+00 -.172294676304D-07  .300000000000D+02
     .360060000000D+05  .400000000000D+01
 3 10  4 25 12  0  0.0  .546541530639D-03  .500222085975D-11  .000000000000D+00
     .970000000000D+02 -.749062500000D+02  .561201947742D-08 -.782014923958D+00
    -.367313623428D-05  .129987390246D-01  .870972871780D-05  .515370294189D+04
     .432000000000D+05  .521540641785D-07 -.129554460509D+01  .225380063057D-06
     .926816925371D+00  .193625000000D+03  .988682026643D+00 -.878929468083D-08
    -.478591363823D-09  .100000000000D+01  .158100000000D+04  .000000000000D+00
     .340000000000D+01  .000000000000D+00 -.419095158577D-08  .970000000000D+02
     .360060000000D+05  .400000000000D+01
 4 10  4 25 12  0  0.0  .678366050124D-04  .841282599140D-11  .000000000000D+00
     .810000000000D+02  .739375000000D+02  .493699135979D-08  .237794280529D+01
     .376813113689D-05  .908968306612D-02  .112224370241D-04  .515368465233D+04
     .432000000000D+05 -.195577740669D-06 -.125771864183D+00 -.145286321640D-06
     .939609912833D+00  .152843750000D+03  .603700542939D+00 -.811962392921D-08
     .234295473633D-09  .100000000000D+01  .158100000000D+04  .000000000000D+00
     .240000000000D+01  .000000000000D+00 -.605359673500D-08  .810000000000D+02
     .360060000000D+05  .400000000000D+01
 5 10  4 25 12  0  0.0 -.198138877749D-05 -.341060513165D-12  .000000000000D+00
     .560000000000D+02  .310000000000D+02  .505485341208D-08  .839906654878D+00
     .181235373020D-05  .186425470747D-02  .273250043392D-05  .515368885422D+04
     .432000000000D+05  .577419996262D-07  .915610024913D+00 -.447034835815D-07
     .958703044779D+00  .322062500000D+03  .331530010516D+00 -.863143096232D-08
    -.375015620906D-10  .100000000000D+01  .158100000000D+04  .000000000000D+00
     .240000000000D+01  .000000000000D+00 -.884756445885D-08  .560000000000D+02
     .360060000000D+05  .400000000000D+01
